NORAD_CAT_ID,OBJECT_NAME,OBJECT_TYPE,EPOCH,MEAN_MOTION,ECCENTRICITY,INCLINATION,RA_OF_ASC_NODE,ARG_OF_PERICENTER,MEAN_ANOMALY,BSTAR,MEAN_MOTION_DOT,MEAN_MOTION_DDOT,TLE_LINE0,TLE_LINE1,TLE_LINE2,SEMIMAJOR_AXIS,PERIOD,APOGEE,PERIGEE,DECAYED
53141.0,STARLINK-4103,PAYLOAD,2022-07-31 06:00:02,15.73233529,0.0001348,53.2182,339.2355,45.1294,56.7223,-0.00024648,-0.00035117,0.0,0 STARLINK-4103,1 53141U 22083K   22212.25002315 -.00035117  00000-0 -24648-3 0  9992,2 53141  53.2182 339.2355 0001348  45.1294  56.7223 15.73233529  2803,6727.8,91.531,350.571,348.7580000000001,0.0
53141.0,STARLINK-4103,PAYLOAD,2022-07-31 14:00:01,15.73201475,0.0001646,53.2183,337.5877,44.2911,146.4521,1.9712e-05,2.147e-05,0.0,0 STARLINK-4103,1 53141U 22083K   22212.58334491  .00002147  00000-0  19712-4 0  9993,2 53141  53.2183 337.5877 0001646  44.2911 146.4521 15.73201475  1308,6727.891,91.533,350.86300000000006,348.649,0.0
53141.0,STARLINK-4103,PAYLOAD,2022-07-31 20:00:01,15.73207402,0.0001675999999999,53.2181,336.3514,39.4102,128.0318,0.00013162,0.00017897,0.0,0 STARLINK-4103,1 53141U 22083K   22212.83334491  .00017897  00000-0  13162-3 0  9991,2 53141  53.2181 336.3514 0001676  39.4102 128.0318 15.73207402  2893,6727.874,91.533,350.867,348.611,0.0
53141.0,STARLINK-4103,PAYLOAD,2022-07-31 22:00:00,15.73249833,0.0001605,53.2179,335.9384,37.8486,241.8182,-0.00055798,-0.00078372,0.0,0 STARLINK-4103,1 53141U 22083K   22212.91667824 -.00078372  00000-0 -55798-3 0  9997,2 53141  53.2179 335.9384 0001605  37.8486 241.8182 15.73249833  1301,6727.753000000002,91.53,350.6980000000001,348.538,0.0
53141.0,STARLINK-4103,PAYLOAD,2022-08-01 04:00:00,15.73169192,0.0001418,53.2181,334.6999,39.7167,216.6856,0.00024769,0.00034238,0.0,0 STARLINK-4103,1 53141U 22083K   22213.16667824  .00034238  00000-0  24769-3 0  9990,2 53141  53.2181 334.6999 0001418  39.7167 216.6856 15.73169192  2949,6727.983,91.535,350.802,348.894,0.0
53141.0,STARLINK-4103,PAYLOAD,2022-08-01 14:00:01,15.73206569,0.0001578,53.2178,332.6399,36.8698,60.6649,2.0052000000000003e-06,-3.39e-06,0.0,0 STARLINK-4103,1 53141U 22083K   22213.58334491 -.00000339  00000-0  20052-5 0  9996,2 53141  53.2178 332.6399 0001578  36.8698  60.6649 15.73206569  1307,6727.876,91.533,350.80300000000005,348.68,0.0
53141.0,STARLINK-4103,PAYLOAD,2022-08-01 22:00:00,15.73253515,0.0001699999999999,53.2177,330.9904,36.792,149.6741,-0.00079365,-0.00110807,0.0,0 STARLINK-4103,1 53141U 22083K   22213.91667824 -.00110807  00000-0 -79365-3 0  9994,2 53141  53.2177 330.9904 0001700  36.7920 149.6741 15.73253515  1307,6727.743,91.53,350.751,348.464,0.0
53141.0,STARLINK-4103,PAYLOAD,2022-08-02 06:00:02,15.73150222,0.0001658,53.218,329.339,45.4699,230.0103,0.00051615,0.0007229,0.0,0 STARLINK-4103,1 53141U 22083K   22214.25002315  .00072290  00000-0  51615-3 0  9999,2 53141  53.2180 329.3390 0001658  45.4699 230.0103 15.73150222  3113,6728.0369999999975,91.536,351.01800000000014,348.787,0.0
53141.0,STARLINK-4103,PAYLOAD,2022-08-02 14:00:01,15.73196204,0.0001901,53.2181,327.6916,41.8154,322.4936,-4.379e-07,-6.82e-06,0.0,0 STARLINK-4103,1 53141U 22083K   22214.58334491 -.00000682  00000-0 -43790-6 0  9994,2 53141  53.2181 327.6916 0001901  41.8154 322.4936 15.73196204  3161,6727.906,91.533,351.05,348.492,0.0
53141.0,STARLINK-4103,PAYLOAD,2022-08-03 04:00:00,15.73227226,0.0001672,53.2177,324.8034,40.1739,29.783,-0.00023247,-0.00033157,0.0,0 STARLINK-4103,1 53141U 22083K   22215.16667824 -.00033157  00000-0 -23247-3 0  9993,2 53141  53.2177 324.8034 0001672  40.1739  29.7830 15.73227226  3251,6727.818,91.532,350.807,348.55800000000005,0.0
53141.0,STARLINK-4103,PAYLOAD,2022-08-03 14:00:01,15.731911300000002,0.0001819,53.2175,322.7435,33.5677,237.5763,8.0052e-05,0.00010624,0.0,0 STARLINK-4103,1 53141U 22083K   22215.58334491  .00010624  00000-0  80052-4 0  9990,2 53141  53.2175 322.7435 0001819  33.5677 237.5763 15.73191130  1303,6727.92,91.534,351.009,348.56199999999984,0.0
53141.0,STARLINK-4103,PAYLOAD,2022-08-03 20:00:01,15.73217204,0.0001808,53.2172,321.5065,28.2771,219.5584,7.875800000000001e-05,0.00010454,0.0,0 STARLINK-4103,1 53141U 22083K   22215.83334491  .00010454  00000-0  78758-4 0  9999,2 53141  53.2172 321.5065 0001808  28.2771 219.5584 15.73217204  3360,6727.846,91.532,350.92800000000005,348.495,0.0
53141.0,STARLINK-4103,PAYLOAD,2022-08-03 22:00:01,15.73252339,0.0001776999999999,53.2174,321.0935,27.9806,332.1492,-0.00048982,-0.0006896,0.0,0 STARLINK-4103,1 53141U 22083K   22215.91668981 -.00068960  00000-0 -48982-3 0  9994,2 53141  53.2174 321.0935 0001777  27.9806 332.1492 15.73252339  1303,6727.746,91.53,350.806,348.415,0.0
53141.0,STARLINK-4103,PAYLOAD,2022-08-04 06:00:00,15.73167859,0.0001569,53.2178,319.4424,29.9942,59.0314,0.00028414,0.0003939,0.0,0 STARLINK-4103,1 53141U 22083K   22216.25001157  .00039390  00000-0  28414-3 0  9999,2 53141  53.2178 319.4424 0001569  29.9942  59.0314 15.73167859  3439,6727.986999999999,91.535,350.907,348.796,0.0
53141.0,STARLINK-4103,PAYLOAD,2022-08-04 14:00:01,15.73190078,0.0001894,53.2177,317.7949,26.8092,151.1241,9.7535e-05,0.00013084,0.0,0 STARLINK-4103,1 53141U 22083K   22216.58334491  .00013084  00000-0  97535-4 0  9998,2 53141  53.2177 317.7949 0001894  26.8092 151.1241 15.73190078  1300,6727.9230000000025,91.534,351.06300000000016,348.514,0.0
53141.0,STARLINK-4103,PAYLOAD,2022-08-04 20:00:01,15.73234152,0.0001996,53.2175,316.5577,27.2801,127.3495,-0.00057279,-0.00080369,0.0,0 STARLINK-4103,1 53141U 22083K   22216.83334491 -.00080369  00000-0 -57279-3 0  9998,2 53141  53.2175 316.5577 0001996  27.2801 127.3495 15.73234152  3522,6727.7980000000025,91.531,351.006,348.32,0.0
53141.0,STARLINK-4103,PAYLOAD,2022-08-04 22:00:00,15.73227634,0.0001947,53.2175,316.1447,29.167,237.7,-0.00063278,-0.0008861,0.0,0 STARLINK-4103,1 53141U 22083K   22216.91667824 -.00088610  00000-0 -63278-3 0  9999,2 53141  53.2175 316.1447 0001947  29.1670 237.7000 15.73227634  1304,6727.816,91.532,350.991,348.371,0.0
53141.0,STARLINK-4103,PAYLOAD,2022-08-05 04:00:00,15.73149552,0.0001851999999999,53.2174,314.9064,33.9146,209.6606,0.00055682,0.00078088,0.0,0 STARLINK-4103,1 53141U 22083K   22217.16667824  .00078088  00000-0  55682-3 0  9993,2 53141  53.2174 314.9064 0001852  33.9146 209.6606 15.73149552  3573,6728.0390000000025,91.536,351.15,348.658,0.0
53141.0,STARLINK-4103,PAYLOAD,2022-08-05 14:00:01,15.73201084,0.0002104,53.2173,312.8467,31.3516,53.4235,0.00017815,0.00024456,0.0,0 STARLINK-4103,1 53141U 22083K   22217.58335648  .00024456  00000-0  17815-3 0  9991,2 53141  53.2173 312.8467 0002104  31.3516  53.4235 15.73201084  1301,6727.892,91.533,351.173,348.342,0.0
53141.0,STARLINK-4103,PAYLOAD,2022-08-05 20:00:01,15.73243665,0.0002126999999999,53.2171,311.6091,27.8817,33.5921,-0.00012169,-0.00017698,0.0,0 STARLINK-4103,1 53141U 22083K   22217.83335648 -.00017698  00000-0 -12169-3 0  9998,2 53141  53.2171 311.6091 0002127  27.8817  33.5921 15.73243665  3672,6727.771,91.531,351.06699999999995,348.205,0.0
53141.0,STARLINK-4103,PAYLOAD,2022-08-05 22:00:00,15.73272426,0.0002015,53.2173,311.1962,28.7419,144.90200000000004,-0.00063656,-0.000893,0.0,0 STARLINK-4103,1 53141U 22083K   22217.91667824 -.00089300  00000-0 -63656-3 0  9997,2 53141  53.2173 311.1962 0002015  28.7419 144.9020 15.73272426  1302,6727.689,91.529,350.909,348.1980000000001,0.0
53141.0,STARLINK-4103,PAYLOAD,2022-08-06 12:00:00,15.73237377,0.000204,53.2175,308.31,23.7904,215.5202,-0.0005507,-0.00077332,0.0,0 STARLINK-4103,1 53141U 22083K   22218.50001157 -.00077332  00000-0 -55070-3 0  9997,2 53141  53.2175 308.3100 0002040  23.7904 215.5202 15.73237377  3785,6727.7890000000025,91.531,351.026,348.281,0.0
53141.0,STARLINK-4103,PAYLOAD,2022-08-06 14:00:01,15.7322549,0.0002097,53.2177,307.8979,22.5899,328.9602,-0.00051092,-0.00071801,0.0,0 STARLINK-4103,1 53141U 22083K   22218.58334491 -.00071801  00000-0 -51092-3 0  9990,2 53141  53.2177 307.8979 0002097  22.5899 328.9602 15.73225490  1309,6727.823,91.532,351.098,348.277,0.0
53141.0,STARLINK-4103,PAYLOAD,2022-08-06 20:00:01,15.73180671,0.00021,53.2174,306.6604,17.2153,311.039,8.1686e-05,0.00010849,0.0,0 STARLINK-4103,1 53141U 22083K   22218.83334491  .00010849  00000-0  81686-4 0  9994,2 53141  53.2174 306.6604 0002100  17.2153 311.0390 15.73180671  3835,6727.95,91.534,351.228,348.402,0.0
53141.0,STARLINK-4103,PAYLOAD,2022-08-06 22:00:00,15.73190296,0.0002028,53.2175,306.2474,18.3836,62.0944,-1.1967e-05,-2.3e-05,0.0,0 STARLINK-4103,1 53141U 22083K   22218.91667824 -.00002300  00000-0 -11967-4 0  9992,2 53141  53.2175 306.2474 0002028  18.3836  62.0944 15.73190296  1308,6727.9230000000025,91.534,351.152,348.423,0.0
53141.0,STARLINK-4103,PAYLOAD,2022-08-07 11:22:55,15.7320992,0.0002016,53.2176,303.488,25.2075,334.9043,3.1159e-05,3.756e-05,0.0,0 STARLINK-4103,1 53141U 22083K   22219.47424988  .00003756  00000-0  31159-4 0  9995,2 53141  53.2176 303.4880 0002016  25.2075 334.9043 15.73209920  3317,6727.8669999999975,91.533,351.088,348.376,0.0
53141.0,STARLINK-4103,PAYLOAD,2022-08-07 22:00:00,15.73202951,0.0002234999999999,53.2174,301.2991,25.7196,321.5593,6.5897e-05,8.638e-05,0.0,0 STARLINK-4103,1 53141U 22083K   22219.91667824  .00008638  00000-0  65897-4 0  9992,2 53141  53.2174 301.2991 0002235  25.7196 321.5593 15.73202951  1302,6727.887,91.533,351.255,348.24800000000016,0.0
53141.0,STARLINK-4103,PAYLOAD,2022-08-08 04:00:00,15.73194722,0.0002159,53.2175,300.0608,28.1027,295.8816,0.00060935,0.0008576,0.0,0 STARLINK-4103,1 53141U 22083K   22220.16667824  .00085760  00000-0  60935-3 0  9999,2 53141  53.2175 300.0608 0002159  28.1027 295.8816 15.73194722  4041,6727.91,91.533,351.228,348.3230000000001,0.0
53141.0,STARLINK-4103,PAYLOAD,2022-08-08 14:00:01,15.73284976,0.0002479,53.2178,298.0012,24.6337,140.644,-0.00028349,-0.00040369,0.0,0 STARLINK-4103,1 53141U 22083K   22220.58335648 -.00040369  00000-0 -28349-3 0  9992,2 53141  53.2178 298.0012 0002479  24.6337 140.6440 15.73284976  1306,6727.653,91.528,351.186,347.85,0.0
